JILIN-1 GAOFEN 3A       
1 44312U 19032C   26157.59066241  .00015163  00000+0  48394-3 0  9999
2 44312  44.9748  55.2456 0006161 245.7180 114.3061 15.32396219386217
WT 1B                   
1 44316U 19032G   26157.34054935  .00013210  00000+0  49927-3 0  9997
2 44316  44.9733 120.1346 0009019 192.3416 167.7247 15.26971008385427
PROX-1                  
1 44339U 19036A   26157.41257966  .00018517  00000+0  18262-2 0  9995
2 44339  23.9936 186.2139 0005371 266.2487  93.7398 14.90357582371866
NPSAT1                  
1 44340U 19036B   26156.68051604  .00006035  00000+0  85168-3 0  9998
2 44340  23.9996 292.6960 0008005  78.9597 281.1799 14.74475870370797
FORMOSAT 7-3            
1 44343U 19036E   26157.60937569  .00005509  00000+0  31176-3 0  9992
2 44343  23.9989 251.3431 0001083 126.3590 233.7014 15.09729878381645
FORMOSAT 7-1            
1 44349U 19036L   26157.51172598  .00003046  00000+0  23595-3 0  9991
2 44349  23.9975 104.3593 0001024  67.8269 292.2340 14.96459708383055
FORMOSAT 7-4            
1 44350U 19036M   26157.33411766  .00002863  00000+0  22025-3 0  9999
2 44350  23.9967 167.6659 0001470  74.4441 285.6222 14.96454259382447
FORMOSAT 7-2            
1 44351U 19036N   26157.48983408  .00002804  00000+0  21514-3 0  9990
2 44351  23.9978 220.9336 0000842  64.5230 295.5358 14.96458119381980
FORMOSAT 7-6            
1 44353U 19036Q   26157.35630384  .00003162  00000+0  24588-3 0  9992
2 44353  23.9989  42.6443 0000925 347.3702  12.6776 14.96463061380196
FORMOSAT 7-5            
1 44358U 19036V   26157.20025471  .00003386  00000+0  26511-3 0  9992
2 44358  24.0005 342.4474 0000436  63.5703 296.4842 14.96470188380703
METEOR-M2 2             
1 44387U 19038A   26157.56724612  .00000317  00000+0  15688-3 0  9992
2 44387  98.9146 144.6966 0002345  63.1312 297.0106 14.24363929359781
GLOBAL-4                
1 44499U 19054E   26157.60252425  .00062017  00000+0  65506-3 0  9996
2 44499  45.0065 297.4314 0006481 276.0630  83.9528 15.63382446378707
ZY-1 02D                
1 44528U 19059A   26157.61365647  .00000289  00000+0  11512-3 0  9997
2 44528  98.3187 219.4726 0002109 121.1861 238.9533 14.35457391352829
TAURUS-1 (JINNIUZUO 1)  
1 44530U 19059C   26157.57100089  .00007741  00000+0  12409-2 0  9997
2 44530  98.6416 321.7415 0007960 353.4132   6.6967 14.71985566357087
ZHUHAI-1 03B            
1 44536U 19060C   26157.62166251  .00035787  00000+0  56293-3 0  9995
2 44536  97.5523 314.8223 0007975   1.6208 358.5069 15.53498255374684
ZHUHAI-1 03D            
1 44538U 19060E   26157.56790079  .00038266  00000+0  70229-3 0  9991
2 44538  97.5386 306.9804 0006975 345.0293  15.0750 15.49147474374432
ZHUHAI-1 03E            
1 44539U 19060F   26157.65844917  .00020739  00000+0  50863-3 0  9991
2 44539  97.5605 307.2443 0006694  67.5069 292.6885 15.40723036374140
GAOFEN-7                
1 44703U 19072A   26157.61070311  .00004798  00000+0  21519-3 0  9995
2 44703  97.2428 219.4741 0018106  75.1110 285.2130 15.21520791366033
JILIN-1 GAOFEN 2A       
1 44777U 19075A   26157.60315218  .00017415  00000+0  45188-3 0  9994
2 44777  97.4960 241.1483 0007620 118.0523 242.1494 15.39029476363255
NINGXIA-1 1             
1 44779U 19076A   26157.63541971 -.00000100  00000+0  19177-4 0  9991
2 44779  45.0047 227.0068 0010158 110.8378 249.3545 14.02037349336378
NINGXIA-1 5             
1 44783U 19076E   26157.57781620 -.00000174  00000+0 -28323-4 0  9991
2 44783  45.0046 226.6094 0009823  99.1462 261.0484 14.02085158336280
KL-ALPHA A              
1 44785U 19077A   26157.56852549  .00000122  00000+0  15702-3 0  9999
2 44785  88.9254 223.7252 0012676 132.3901 227.8328 13.56042563324297
CARTOSAT-3              
1 44804U 19081A   26157.61904610  .00005817  00000+0  27905-3 0  9993
2 44804  97.4307 219.6556 0012148 183.2511 176.8647 15.19208053361860
JILIN-1 GAOFEN 2B       
1 44836U 19086A   26157.61871967  .00008039  00000+0  36900-3 0  9995
2 44836  97.4878 229.6767 0013818   3.1969 356.9352 15.20594969358883
TIANQIN 1 (CAS-6)       
1 44879U 19093A   26157.58396920  .00003862  00000+0  35447-3 0  9991
2 44879  97.7801 241.5012 0012942  89.5147 270.7557 14.95386895350462
ETRSS-1                 
1 44880U 19093B   26157.59381633  .00004785  00000+0  43302-3 0  9993
2 44880  97.7824 241.9610 0013157  89.4115 270.8613 14.95814953350476
TIANYAN 01              
1 44881U 19093C   26157.61123463  .00000846  00000+0  10149-3 0  9999
2 44881  97.7529 230.1007 0014788 118.4712 241.7995 14.86500931349843
TIANYAN 02              
1 44882U 19093D   26157.61577087  .00009330  00000+0  65837-3 0  9996
2 44882  97.7920 252.3055 0014516  62.3662 297.9036 15.05094233351025
