OBJECT_NAME,OBJECT_ID,EPOCH,MEAN_MOTION,ECCENTRICITY,INCLINATION,RA_OF_ASC_NODE,ARG_OF_PERICENTER,MEAN_ANOMALY,EPHEMERIS_TYPE,CLASSIFICATION_TYPE,NORAD_CAT_ID,ELEMENT_SET_NO,REV_AT_EPOCH,BSTAR,MEAN_MOTION_DOT,MEAN_MOTION_DDOT
JILIN-1 GAOFEN 3A,2019-032C,2026-06-06T14:10:33.232224,15.32396219,.00061619,44.9748,55.2456,245.7180,114.3061,0,U,44312,999,38621,.48393794E-3,.15163E-3,0
WT 1B,2019-032G,2026-06-06T08:10:23.463840,15.26971008,.00090193,44.9733,120.1346,192.3416,167.7247,0,U,44316,999,38542,.49926835E-3,.1321E-3,0
PROX-1,2019-036A,2026-06-06T09:54:06.882624,14.90357582,.00053718,23.9936,186.2139,266.2487,93.7398,0,U,44339,999,37186,.18261989E-2,.18517E-3,0
NPSAT1,2019-036B,2026-06-05T16:19:56.585856,14.74475870,.00080052,23.9996,292.6960,78.9597,281.1799,0,U,44340,999,37079,.85167651E-3,.6035E-4,0
FORMOSAT 7-3,2019-036E,2026-06-06T14:37:30.059616,15.09729878,.00010835,23.9989,251.3431,126.3590,233.7014,0,U,44343,999,38164,.31176026E-3,.5509E-4,0
FORMOSAT 7-1,2019-036L,2026-06-06T12:16:53.124672,14.96459708,.00010248,23.9975,104.3593,67.8269,292.2340,0,U,44349,999,38305,.23594633E-3,.3046E-4,0
FORMOSAT 7-4,2019-036M,2026-06-06T08:01:07.765824,14.96454259,.00014702,23.9967,167.6659,74.4441,285.6222,0,U,44350,999,38244,.22024807E-3,.2863E-4,0
FORMOSAT 7-2,2019-036N,2026-06-06T11:45:21.664512,14.96458119,.00008421,23.9978,220.9336,64.5230,295.5358,0,U,44351,999,38198,.21514305E-3,.2804E-4,0
FORMOSAT 7-6,2019-036Q,2026-06-06T08:33:04.651776,14.96463061,.00009257,23.9989,42.6443,347.3702,12.6776,0,U,44353,999,38019,.24588224E-3,.3162E-4,0
FORMOSAT 7-5,2019-036V,2026-06-06T04:48:22.006944,14.96470188,.00004364,24.0005,342.4474,63.5703,296.4842,0,U,44358,999,38070,.26511227E-3,.3386E-4,0
METEOR-M2 2,2019-038A,2026-06-06T13:36:50.064768,14.24363929,.00023459,98.9146,144.6966,63.1312,297.0106,0,U,44387,999,35978,.15688075E-3,.317E-5,0
GLOBAL-4,2019-054E,2026-06-06T14:27:38.095200,15.63382446,.00064819,45.0065,297.4314,276.0630,83.9528,0,U,44499,999,37870,.65505719E-3,.62017E-3,0
ZY-1 02D,2019-059A,2026-06-06T14:43:39.919008,14.35457391,.00021096,98.3187,219.4726,121.1861,238.9533,0,U,44528,999,35282,.11511611E-3,.289E-5,0
TAURUS-1 (JINNIUZUO 1),2019-059C,2026-06-06T13:42:14.476896,14.71985566,.00079601,98.6416,321.7415,353.4132,6.6967,0,U,44530,999,35708,.124086E-2,.7741E-4,0
ZHUHAI-1 03B,2019-060C,2026-06-06T14:55:11.640864,15.53498255,.00079754,97.5523,314.8223,1.6208,358.5069,0,U,44536,999,37468,.56293442E-3,.35787E-3,0
ZHUHAI-1 03D,2019-060E,2026-06-06T13:37:46.628256,15.49147474,.00069759,97.5386,306.9804,345.0293,15.0750,0,U,44538,999,37443,.70229108E-3,.38266E-3,0
ZHUHAI-1 03E,2019-060F,2026-06-06T15:48:10.008288,15.40723036,.00066945,97.5605,307.2443,67.5069,292.6885,0,U,44539,999,37414,.50862608E-3,.20739E-3,0
GAOFEN-7,2019-072A,2026-06-06T14:39:24.748704,15.21520791,.00181065,97.2428,219.4741,75.1110,285.2130,0,U,44703,999,36603,.21518875E-3,.4798E-4,0
JILIN-1 GAOFEN 2A,2019-075A,2026-06-06T14:28:32.348352,15.39029476,.00076202,97.4960,241.1483,118.0523,242.1494,0,U,44777,999,36325,.45187794E-3,.17415E-3,0
NINGXIA-1 1,2019-076A,2026-06-06T15:15:00.262944,14.02037349,.00101588,45.0047,227.0068,110.8378,249.3545,0,U,44779,999,33637,.19176959E-4,-.1E-5,0
NINGXIA-1 5,2019-076E,2026-06-06T13:52:03.319680,14.02085158,.00098232,45.0046,226.6094,99.1462,261.0484,0,U,44783,999,33628,-.28323271E-4,-.174E-5,0
KL-ALPHA A,2019-077A,2026-06-06T13:38:40.602336,13.56042563,.00126763,88.9254,223.7252,132.3901,227.8328,0,U,44785,999,32429,.15701587E-3,.122E-5,0
CARTOSAT-3,2019-081A,2026-06-06T14:51:25.583040,15.19208053,.00121484,97.4307,219.6556,183.2511,176.8647,0,U,44804,999,36186,.27905371E-3,.5817E-4,0
JILIN-1 GAOFEN 2B,2019-086A,2026-06-06T14:50:57.379488,15.20594969,.00138188,97.4878,229.6767,3.1969,356.9352,0,U,44836,999,35888,.36899835E-3,.8039E-4,0
TIANQIN 1 (CAS-6),2019-093A,2026-06-06T14:00:54.938880,14.95386895,.00129422,97.7801,241.5012,89.5147,270.7557,0,U,44879,999,35046,.35447206E-3,.3862E-4,0
ETRSS-1,2019-093B,2026-06-06T14:15:05.730912,14.95814953,.00131574,97.7824,241.9610,89.4115,270.8613,0,U,44880,999,35047,.43302386E-3,.4785E-4,0
TIANYAN 01,2019-093C,2026-06-06T14:40:10.672032,14.86500931,.00147882,97.7529,230.1007,118.4712,241.7995,0,U,44881,999,34984,.10149005E-3,.846E-5,0
TIANYAN 02,2019-093D,2026-06-06T14:46:42.603168,15.05094233,.00145169,97.7920,252.3055,62.3662,297.9036,0,U,44882,999,35102,.65837327E-3,.933E-4,0
